ONEWEB-0627             
1 55168U 23004AE  26043.98232906 -.00000017  00000+0 -77248-4 0  9999
2 55168  87.9103  30.5478 0002323  75.9390 284.1999 13.17648418151221
ONEWEB-0628             
1 55169U 23004AF  26043.90974397  .00000432  00000+0  11653-2 0  9994
2 55169  87.8972  15.3175 0002215  62.1389 297.9964 13.12443090151730
ONEWEB-0629             
1 55170U 23004AG  26043.95785936  .00000049  00000+0  92718-4 0  9997
2 55170  87.9110  30.5504 0001753  72.3778 287.7545 13.17650065151226
ONEWEB-0631             
1 55171U 23004AH  26043.89131428 -.00000163  00000+0 -44552-3 0  9993
2 55171  87.9232   0.1094 0002306  88.5521 271.5875 13.18685703153293
ONEWEB-0709             
1 55172U 23004AJ  26043.99321016  .00000593  00000+0  16370-2 0  9990
2 55172  87.8823  45.7903 0002255 114.0211 246.1153 13.11416983149597
ONEWEB-0710             
1 55173U 23004AK  26043.97220163  .00000042  00000+0  75278-4 0  9993
2 55173  87.9106  30.5422 0002056  82.5015 277.6350 13.17649580151229
ONEWEB-0711             
1 55174U 23004AL  26044.04066777 -.00000357  00000+0 -10436-2 0  9996
2 55174  87.8834  45.7596 0002464  77.3359 282.8044 13.11419048149563
ONEWEB-0713             
1 55175U 23004AM  26043.98303085  .00000477  00000+0  13103-2 0  9990
2 55175  87.8832  45.7721 0002190  82.7763 277.3614 13.11418858149545
ONEWEB-0715             
1 55176U 23004AN  26043.97794831  .00000378  00000+0  10294-2 0  9991
2 55176  87.8835  45.7729 0002402 102.3952 257.7445 13.11418992149589
ONEWEB-0716             
1 55177U 23004AP  26043.96545203 -.00000103  00000+0 -29761-3 0  9996
2 55177  87.9108  30.5432 0001649  85.2995 274.8325 13.17649268151224
ONEWEB-0717             
1 55178U 23004AQ  26043.94857383 -.00000134  00000+0 -37937-3 0  9998
2 55178  87.9120  30.5238 0002514  78.5004 281.6409 13.17648814151271
ONEWEB-0719             
1 55179U 23004AR  26043.95872147  .00000054  00000+0  10698-3 0  9999
2 55179  87.9118  30.5035 0001723  80.8209 279.3118 13.17650398151224
ONEWEB-0530             
1 55796U 23029A   26044.15233213  .00000057  00000+0  10865-3 0  9998
2 55796  87.9203 299.2378 0001958  66.0233 294.1105 13.20770154144771
ONEWEB-0534             
1 55797U 23029B   26044.13970684 -.00000001  00000+0 -33436-4 0  9998
2 55797  87.9204 299.2395 0001529  81.4211 278.7095 13.20770155144770
ONEWEB-0556             
1 55798U 23029C   26044.14601357 -.00000194  00000+0 -51011-3 0  9999
2 55798  87.9202 299.2408 0001103  49.9200 310.2030 13.20771311144775
ONEWEB-0562             
1 55799U 23029D   26044.13339546  .00000092  00000+0  19556-3 0  9990
2 55799  87.9203 299.2228 0001943  56.2221 303.9097 13.20769792144775
ONEWEB-0563             
1 55800U 23029E   26044.12708155  .00000054  00000+0  99893-4 0  9999
2 55800  87.9204 299.2542 0001420  79.3567 280.7726 13.20770389144761
