[{"OBJECT_NAME":"ONEWEB-0627","OBJECT_ID":"2023-004AE","EPOCH":"2026-02-12T23:34:33.230784","MEAN_MOTION":13.17648418,"ECCENTRICITY":0.0002323,"INCLINATION":87.9103,"RA_OF_ASC_NODE":30.5478,"ARG_OF_PERICENTER":75.939,"MEAN_ANOMALY":284.1999,"EPHEMERIS_TYPE":0,"CLASSIFICATION_TYPE":"U","NORAD_CAT_ID":55168,"ELEMENT_SET_NO":999,"REV_AT_EPOCH":15122,"BSTAR":-7.7248e-5,"MEAN_MOTION_DOT":-1.7e-7,"MEAN_MOTION_DDOT":0},{"OBJECT_NAME":"ONEWEB-0628","OBJECT_ID":"2023-004AF","EPOCH":"2026-02-12T21:50:01.879008","MEAN_MOTION":13.1244309,"ECCENTRICITY":0.0002215,"INCLINATION":87.8972,"RA_OF_ASC_NODE":15.3175,"ARG_OF_PERICENTER":62.1389,"MEAN_ANOMALY":297.9964,"EPHEMERIS_TYPE":0,"CLASSIFICATION_TYPE":"U","NORAD_CAT_ID":55169,"ELEMENT_SET_NO":999,"REV_AT_EPOCH":15173,"BSTAR":0.0011653,"MEAN_MOTION_DOT":4.32e-6,"MEAN_MOTION_DDOT":0},{"OBJECT_NAME":"ONEWEB-0629","OBJECT_ID":"2023-004AG","EPOCH":"2026-02-12T22:59:19.048704","MEAN_MOTION":13.17650065,"ECCENTRICITY":0.0001753,"INCLINATION":87.911,"RA_OF_ASC_NODE":30.5504,"ARG_OF_PERICENTER":72.3778,"MEAN_ANOMALY":287.7545,"EPHEMERIS_TYPE":0,"CLASSIFICATION_TYPE":"U","NORAD_CAT_ID":55170,"ELEMENT_SET_NO":999,"REV_AT_EPOCH":15122,"BSTAR":9.2718e-5,"MEAN_MOTION_DOT":4.9e-7,"MEAN_MOTION_DDOT":0},{"OBJECT_NAME":"ONEWEB-0631","OBJECT_ID":"2023-004AH","EPOCH":"2026-02-12T21:23:29.553792","MEAN_MOTION":13.18685703,"ECCENTRICITY":0.0002306,"INCLINATION":87.9232,"RA_OF_ASC_NODE":0.1094,"ARG_OF_PERICENTER":88.5521,"MEAN_ANOMALY":271.5875,"EPHEMERIS_TYPE":0,"CLASSIFICATION_TYPE":"U","NORAD_CAT_ID":55171,"ELEMENT_SET_NO":999,"REV_AT_EPOCH":15329,"BSTAR":-0.00044552,"MEAN_MOTION_DOT":-1.63e-6,"MEAN_MOTION_DDOT":0},{"OBJECT_NAME":"ONEWEB-0709","OBJECT_ID":"2023-004AJ","EPOCH":"2026-02-12T23:50:13.357824","MEAN_MOTION":13.11416983,"ECCENTRICITY":0.0002255,"INCLINATION":87.8823,"RA_OF_ASC_NODE":45.7903,"ARG_OF_PERICENTER":114.0211,"MEAN_ANOMALY":246.1153,"EPHEMERIS_TYPE":0,"CLASSIFICATION_TYPE":"U","NORAD_CAT_ID":55172,"ELEMENT_SET_NO":999,"REV_AT_EPOCH":14959,"BSTAR":0.001637,"MEAN_MOTION_DOT":5.93e-6,"MEAN_MOTION_DDOT":0},{"OBJECT_NAME":"ONEWEB-0710","OBJECT_ID":"2023-004AK","EPOCH":"2026-02-12T23:19:58.220832","MEAN_MOTION":13.1764958,"ECCENTRICITY":0.0002056,"INCLINATION":87.9106,"RA_OF_ASC_NODE":30.5422,"ARG_OF_PERICENTER":82.5015,"MEAN_ANOMALY":277.635,"EPHEMERIS_TYPE":0,"CLASSIFICATION_TYPE":"U","NORAD_CAT_ID":55173,"ELEMENT_SET_NO":999,"REV_AT_EPOCH":15122,"BSTAR":7.5278e-5,"MEAN_MOTION_DOT":4.2e-7,"MEAN_MOTION_DDOT":0},{"OBJECT_NAME":"ONEWEB-0711","OBJECT_ID":"2023-004AL","EPOCH":"2026-02-13T00:58:33.695328","MEAN_MOTION":13.11419048,"ECCENTRICITY":0.0002464,"INCLINATION":87.8834,"RA_OF_ASC_NODE":45.7596,"ARG_OF_PERICENTER":77.3359,"MEAN_ANOMALY":282.8044,"EPHEMERIS_TYPE":0,"CLASSIFICATION_TYPE":"U","NORAD_CAT_ID":55174,"ELEMENT_SET_NO":999,"REV_AT_EPOCH":14956,"BSTAR":-0.0010436,"MEAN_MOTION_DOT":-3.57e-6,"MEAN_MOTION_DDOT":0},{"OBJECT_NAME":"ONEWEB-0713","OBJECT_ID":"2023-004AM","EPOCH":"2026-02-12T23:35:33.865440","MEAN_MOTION":13.11418858,"ECCENTRICITY":0.000219,"INCLINATION":87.8832,"RA_OF_ASC_NODE":45.7721,"ARG_OF_PERICENTER":82.7763,"MEAN_ANOMALY":277.3614,"EPHEMERIS_TYPE":0,"CLASSIFICATION_TYPE":"U","NORAD_CAT_ID":55175,"ELEMENT_SET_NO":999,"REV_AT_EPOCH":14954,"BSTAR":0.0013103,"MEAN_MOTION_DOT":4.77e-6,"MEAN_MOTION_DDOT":0},{"OBJECT_NAME":"ONEWEB-0715","OBJECT_ID":"2023-004AN","EPOCH":"2026-02-12T23:28:14.733984","MEAN_MOTION":13.11418992,"ECCENTRICITY":0.0002402,"INCLINATION":87.8835,"RA_OF_ASC_NODE":45.7729,"ARG_OF_PERICENTER":102.3952,"MEAN_ANOMALY":257.7445,"EPHEMERIS_TYPE":0,"CLASSIFICATION_TYPE":"U","NORAD_CAT_ID":55176,"ELEMENT_SET_NO":999,"REV_AT_EPOCH":14958,"BSTAR":0.0010294,"MEAN_MOTION_DOT":3.78e-6,"MEAN_MOTION_DDOT":0},{"OBJECT_NAME":"ONEWEB-0716","OBJECT_ID":"2023-004AP","EPOCH":"2026-02-12T23:10:15.055392","MEAN_MOTION":13.17649268,"ECCENTRICITY":0.0001649,"INCLINATION":87.9108,"RA_OF_ASC_NODE":30.5432,"ARG_OF_PERICENTER":85.2995,"MEAN_ANOMALY":274.8325,"EPHEMERIS_TYPE":0,"CLASSIFICATION_TYPE":"U","NORAD_CAT_ID":55177,"ELEMENT_SET_NO":999,"REV_AT_EPOCH":15122,"BSTAR":-0.00029761,"MEAN_MOTION_DOT":-1.03e-6,"MEAN_MOTION_DDOT":0},{"OBJECT_NAME":"ONEWEB-0717","OBJECT_ID":"2023-004AQ","EPOCH":"2026-02-12T22:45:56.778912","MEAN_MOTION":13.17648814,"ECCENTRICITY":0.0002514,"INCLINATION":87.912,"RA_OF_ASC_NODE":30.5238,"ARG_OF_PERICENTER":78.5004,"MEAN_ANOMALY":281.6409,"EPHEMERIS_TYPE":0,"CLASSIFICATION_TYPE":"U","NORAD_CAT_ID":55178,"ELEMENT_SET_NO":999,"REV_AT_EPOCH":15127,"BSTAR":-0.00037937,"MEAN_MOTION_DOT":-1.34e-6,"MEAN_MOTION_DDOT":0},{"OBJECT_NAME":"ONEWEB-0719","OBJECT_ID":"2023-004AR","EPOCH":"2026-02-12T23:00:33.535008","MEAN_MOTION":13.17650398,"ECCENTRICITY":0.0001723,"INCLINATION":87.9118,"RA_OF_ASC_NODE":30.5035,"ARG_OF_PERICENTER":80.8209,"MEAN_ANOMALY":279.3118,"EPHEMERIS_TYPE":0,"CLASSIFICATION_TYPE":"U","NORAD_CAT_ID":55179,"ELEMENT_SET_NO":999,"REV_AT_EPOCH":15122,"BSTAR":0.00010698,"MEAN_MOTION_DOT":5.4e-7,"MEAN_MOTION_DDOT":0},{"OBJECT_NAME":"ONEWEB-0530","OBJECT_ID":"2023-029A","EPOCH":"2026-02-13T03:39:21.496032","MEAN_MOTION":13.20770154,"ECCENTRICITY":0.0001958,"INCLINATION":87.9203,"RA_OF_ASC_NODE":299.2378,"ARG_OF_PERICENTER":66.0233,"MEAN_ANOMALY":294.1105,"EPHEMERIS_TYPE":0,"CLASSIFICATION_TYPE":"U","NORAD_CAT_ID":55796,"ELEMENT_SET_NO":999,"REV_AT_EPOCH":14477,"BSTAR":0.00010865,"MEAN_MOTION_DOT":5.7e-7,"MEAN_MOTION_DDOT":0},{"OBJECT_NAME":"ONEWEB-0534","OBJECT_ID":"2023-029B","EPOCH":"2026-02-13T03:21:10.670976","MEAN_MOTION":13.20770155,"ECCENTRICITY":0.0001529,"INCLINATION":87.9204,"RA_OF_ASC_NODE":299.2395,"ARG_OF_PERICENTER":81.4211,"MEAN_ANOMALY":278.7095,"EPHEMERIS_TYPE":0,"CLASSIFICATION_TYPE":"U","NORAD_CAT_ID":55797,"ELEMENT_SET_NO":999,"REV_AT_EPOCH":14477,"BSTAR":-3.3436e-5,"MEAN_MOTION_DOT":-1.0e-8,"MEAN_MOTION_DDOT":0},{"OBJECT_NAME":"ONEWEB-0556","OBJECT_ID":"2023-029C","EPOCH":"2026-02-13T03:30:15.572448","MEAN_MOTION":13.20771311,"ECCENTRICITY":0.0001103,"INCLINATION":87.9202,"RA_OF_ASC_NODE":299.2408,"ARG_OF_PERICENTER":49.92,"MEAN_ANOMALY":310.203,"EPHEMERIS_TYPE":0,"CLASSIFICATION_TYPE":"U","NORAD_CAT_ID":55798,"ELEMENT_SET_NO":999,"REV_AT_EPOCH":14477,"BSTAR":-0.00051011,"MEAN_MOTION_DOT":-1.94e-6,"MEAN_MOTION_DDOT":0},{"OBJECT_NAME":"ONEWEB-0562","OBJECT_ID":"2023-029D","EPOCH":"2026-02-13T03:12:05.367744","MEAN_MOTION":13.20769792,"ECCENTRICITY":0.0001943,"INCLINATION":87.9203,"RA_OF_ASC_NODE":299.2228,"ARG_OF_PERICENTER":56.2221,"MEAN_ANOMALY":303.9097,"EPHEMERIS_TYPE":0,"CLASSIFICATION_TYPE":"U","NORAD_CAT_ID":55799,"ELEMENT_SET_NO":999,"REV_AT_EPOCH":14477,"BSTAR":0.00019556,"MEAN_MOTION_DOT":9.2e-7,"MEAN_MOTION_DDOT":0},{"OBJECT_NAME":"ONEWEB-0563","OBJECT_ID":"2023-029E","EPOCH":"2026-02-13T03:02:59.845920","MEAN_MOTION":13.20770389,"ECCENTRICITY":0.000142,"INCLINATION":87.9204,"RA_OF_ASC_NODE":299.2542,"ARG_OF_PERICENTER":79.3567,"MEAN_ANOMALY":280.7726,"EPHEMERIS_TYPE":0,"CLASSIFICATION_TYPE":"U","NORAD_CAT_ID":55800,"ELEMENT_SET_NO":999,"REV_AT_EPOCH":14476,"BSTAR":9.9893e-5,"MEAN_MOTION_DOT":5.4e-7,"MEAN_MOTION_DDOT":0}]
